{
    "links": {
        "self": "http://www.neowsapp.com/rest/v1/neo/3184479?api_key=iIulBulltgU6a56xZRHN4H3l9WmuAYTsLGpBGhQ2"
    },
    "id": "3184479",
    "neo_reference_id": "3184479",
    "name": "(2004 MP7)",
    "designation": "2004 MP7",
    "nasa_jpl_url": "http://ssd.jpl.nasa.gov/sbdb.cgi?sstr=3184479",
    "absolute_magnitude_h": 21.7,
    "estimated_diameter": {
        "kilometers": {
            "estimated_diameter_min": 0.1214940408,
            "estimated_diameter_max": 0.2716689341
        },
        "meters": {
            "estimated_diameter_min": 121.4940407996,
            "estimated_diameter_max": 271.6689340891
        },
        "miles": {
            "estimated_diameter_min": 0.0754928736,
            "estimated_diameter_max": 0.1688071972
        },
        "feet": {
            "estimated_diameter_min": 398.6025088171,
            "estimated_diameter_max": 891.3023057169
        }
    },
    "is_potentially_hazardous_asteroid": true,
    "close_approach_data": [
        {
            "close_approach_date": "2004-06-24",
            "close_approach_date_full": "2004-Jun-24 08:57",
            "epoch_date_close_approach": 1088067420000,
            "relative_velocity": {
                "kilometers_per_second": "19.5119437585",
                "kilometers_per_hour": "70242.9975305705",
                "miles_per_hour": "43646.2669933703"
            },
            "miss_distance": {
                "astronomical": "0.0298088455",
                "lunar": "11.5956408995",
                "kilometers": "4459339.793959085",
                "miles": "2770905.259381973"
            },
            "orbiting_body": "Earth"
        },
        {
            "close_approach_date": "2011-12-17",
            "close_approach_date_full": "2011-Dec-17 20:17",
            "epoch_date_close_approach": 1324153020000,
            "relative_velocity": {
                "kilometers_per_second": "8.5996759865",
                "kilometers_per_hour": "30958.8335513801",
                "miles_per_hour": "19236.6152141895"
            },
            "miss_distance": {
                "astronomical": "1.2772241589",
                "lunar": "496.8401978121",
                "kilometers": "191070013.683981543",
                "miles": "118725401.1332215734"
            },
            "orbiting_body": "Juptr"
        },
        {
            "close_approach_date": "2165-12-17",
            "close_approach_date_full": "2165-Dec-17 10:51",
            "epoch_date_close_approach": 6183946260000,
            "relative_velocity": {
                "kilometers_per_second": "12.4101406254",
                "kilometers_per_hour": "44676.5062514101",
                "miles_per_hour": "27760.2435649387"
            },
            "miss_distance": {
                "astronomical": "1.8932765806",
                "lunar": "736.4845898534",
                "kilometers": "283230143.778643322",
                "miles": "175991050.5305969636"
            },
            "orbiting_body": "Juptr"
        },
        {
            "close_approach_date": "2176-01-21",
            "close_approach_date_full": "2176-Jan-21 17:06",
            "epoch_date_close_approach": 6502525560000,
            "relative_velocity": {
                "kilometers_per_second": "29.3117895803",
                "kilometers_per_hour": "105522.4424891941",
                "miles_per_hour": "65567.542112244"
            },
            "miss_distance": {
                "astronomical": "0.4818701647",
                "lunar": "187.4474940683",
                "kilometers": "72086750.255669189",
                "miles": "44792629.5470412482"
            },
            "orbiting_body": "Earth"
        },
        {
            "close_approach_date": "2177-07-29",
            "close_approach_date_full": "2177-Jul-29 04:34",
            "epoch_date_close_approach": 6550432440000,
            "relative_velocity": {
                "kilometers_per_second": "10.1389516023",
                "kilometers_per_hour": "36500.2257683207",
                "miles_per_hour": "22679.8208392101"
            },
            "miss_distance": {
                "astronomical": "1.9175942754",
                "lunar": "745.9441731306",
                "kilometers": "286868019.124033398",
                "miles": "178251521.4507929724"
            },
            "orbiting_body": "Juptr"
        }
    ],
    "orbital_data": {
        "orbit_id": "18",
        "orbit_determination_date": "2017-04-06 09:12:33",
        "first_observation_date": "2004-06-26",
        "last_observation_date": "2004-07-22",
        "data_arc_in_days": 26,
        "observations_used": 67,
        "orbit_uncertainty": "7",
        "minimum_orbit_intersection": ".00814241",
        "jupiter_tisserand_invariant": "2.866",
        "epoch_osculation": "2459000.5",
        "eccentricity": ".7198690819023057",
        "semi_major_axis": "2.726145338211195",
        "inclination": "17.65918839969493",
        "ascending_node_longitude": "95.23480813615613",
        "orbital_period": "1644.076172462392",
        "perihelion_distance": ".7636775964608513",
        "perihelion_argument": "112.1948801969093",
        "aphelion_distance": "4.688613079961538",
        "perihelion_time": "2459741.286344823433",
        "mean_anomaly": "197.7915277872953",
        "mean_motion": ".2189679566128709",
        "equinox": "J2000",
        "orbit_class": {
            "orbit_class_type": "APO",
            "orbit_class_description": "Near-Earth asteroid orbits which cross the Earth’s orbit similar to that of 1862 Apollo",
            "orbit_class_range": "a (semi-major axis) > 1.0 AU; q (perihelion) < 1.017 AU"
        }
    },
    "is_sentry_object": false
}